SBIRS GEO-6 (USA 336)   
1 53355U 22092A   26087.92879384 -.00000315  00000+0  00000+0 0  9997
2 53355   3.3958 316.2107 0002206  40.7737 302.6956  1.00271310 13425
EUTELSAT KONNECT VHTS   
1 53765U 22110A   26087.84836296 -.00000003  00000+0  00000+0 0  9993
2 53765   0.0607 102.5466 0002902 234.9321 156.8607  1.00270191  6035
ZHONGXING-1E            
1 53813U 22112A   26087.91737833 -.00000169  00000+0  00000+0 0  9997
2 53813   0.0420 351.7725 0002261 314.6329 291.5941  1.00271257 13041
SES-20                  
1 53960U 22123A   26087.51086254 -.00000121  00000+0  00000+0 0  9990
2 53960   0.0301  92.6008 0001507 326.1773 207.9425  1.00273465 12725
SES-21                  
1 53961U 22123B   26087.30489972  .00000049  00000+0  00000+0 0  9990
2 53961   0.0266  72.2465 0001180 285.3890 166.8480  1.00274783  6406
GALAXY 33 (G-33)        
1 54026U 22128A   26087.66101388  .00000060  00000+0  00000+0 0  9992
2 54026   0.0278  82.8726 0001882 272.1624 295.9805  1.00270244 12935
GALAXY 34 (G-34)        
1 54027U 22128B   26087.51642039  .00000000  00000+0  00000+0 0  9994
2 54027   0.0198 170.9941 0001484 190.3331 241.5926  1.00268357 13102
ANGOSAT 2               
1 54033U 22131A   26085.76666830  .00000118  00000+0  00000+0 0  9995
2 54033   0.0180 177.0476 0000266 284.3154  21.8233  1.00269817 12656
EUTELSAT HOTBIRD 13F    
1 54048U 22134A   26087.76120097  .00000067  00000+0  00000+0 0  9999
2 54048   0.0557 287.3241 0001979  69.5197 116.3451  1.00271701 12575
LDPE-2                  
1 54219U 22144A   26087.61448770 -.00000334  00000+0  00000+0 0  9993
2 54219   5.4477  64.1024 0000260 260.2894 210.4352  1.00544654 11037
EUTELSAT HOTBIRD 13G    
1 54225U 22146A   26087.83030752  .00000067  00000+0  00000+0 0  9995
2 54225   0.0445 231.1887 0001943 315.3586 311.5840  1.00271623  6663
ZHONGXING-19            
1 54230U 22148A   26087.86225810 -.00000101  00000+0  00000+0 0  9997
2 54230   0.0203 140.9646 0002408 220.0812 298.8066  1.00271678 12576
GALAXY 31 (G-31)        
1 54243U 22153A   26087.66335389 -.00000006  00000+0  00000+0 0  9992
2 54243   0.0180 134.3613 0001438 232.8915 296.6105  1.00271346  6320
GALAXY 32 (G-32)        
1 54244U 22153B   26087.52667995 -.00000194  00000+0  00000+0 0  9997
2 54244   0.0150 118.7764 0002950 242.1591 283.5980  1.00271225 12335
EUTELSAT 10B            
1 54259U 22157A   26087.84836296  .00000048  00000+0  00000+0 0  9991
2 54259   0.0608  98.3557 0001039  32.6589  10.6107  1.00266916 12227
GALAXY 35 (G-35)        
1 54741U 22170A   26087.88279819 -.00000182  00000+0  00000+0 0  9998
2 54741   0.0137 143.3187 0002005 220.8196  46.8423  1.00271518 12089
GALAXY 36 (G-36)        
1 54742U 22170B   26087.88366486 -.00000205  00000+0  00000+0 0  9992
2 54742   0.0114 183.6782 0002227 223.3630   8.3592  1.00271480 11964
