[{"OBJECT_NAME":"SBIRS GEO-6 (USA 336)","OBJECT_ID":"2022-092A","EPOCH":"2026-03-28T22:17:27.787776","MEAN_MOTION":1.0027131,"ECCENTRICITY":0.00022068,"INCLINATION":3.3958,"RA_OF_ASC_NODE":316.2107,"ARG_OF_PERICENTER":40.7737,"MEAN_ANOMALY":302.6956,"EPHEMERIS_TYPE":0,"CLASSIFICATION_TYPE":"U","NORAD_CAT_ID":53355,"ELEMENT_SET_NO":999,"REV_AT_EPOCH":1342,"BSTAR":0,"MEAN_MOTION_DOT":-3.15e-6,"MEAN_MOTION_DDOT":0},{"OBJECT_NAME":"EUTELSAT KONNECT VHTS","OBJECT_ID":"2022-110A","EPOCH":"2026-03-28T20:21:38.559744","MEAN_MOTION":1.00270191,"ECCENTRICITY":0.00029026,"INCLINATION":0.0607,"RA_OF_ASC_NODE":102.5466,"ARG_OF_PERICENTER":234.9321,"MEAN_ANOMALY":156.8607,"EPHEMERIS_TYPE":0,"CLASSIFICATION_TYPE":"U","NORAD_CAT_ID":53765,"ELEMENT_SET_NO":999,"REV_AT_EPOCH":603,"BSTAR":0,"MEAN_MOTION_DOT":-3.0e-8,"MEAN_MOTION_DDOT":0},{"OBJECT_NAME":"ZHONGXING-1E","OBJECT_ID":"2022-112A","EPOCH":"2026-03-28T22:01:01.487712","MEAN_MOTION":1.00271257,"ECCENTRICITY":0.00022616,"INCLINATION":0.042,"RA_OF_ASC_NODE":351.7725,"ARG_OF_PERICENTER":314.6329,"MEAN_ANOMALY":291.5941,"EPHEMERIS_TYPE":0,"CLASSIFICATION_TYPE":"U","NORAD_CAT_ID":53813,"ELEMENT_SET_NO":999,"REV_AT_EPOCH":1304,"BSTAR":0,"MEAN_MOTION_DOT":-1.69e-6,"MEAN_MOTION_DDOT":0},{"OBJECT_NAME":"SES-20","OBJECT_ID":"2022-123A","EPOCH":"2026-03-28T12:15:38.523456","MEAN_MOTION":1.00273465,"ECCENTRICITY":0.0001507,"INCLINATION":0.0301,"RA_OF_ASC_NODE":92.6008,"ARG_OF_PERICENTER":326.1773,"MEAN_ANOMALY":207.9425,"EPHEMERIS_TYPE":0,"CLASSIFICATION_TYPE":"U","NORAD_CAT_ID":53960,"ELEMENT_SET_NO":999,"REV_AT_EPOCH":1272,"BSTAR":0,"MEAN_MOTION_DOT":-1.21e-6,"MEAN_MOTION_DDOT":0},{"OBJECT_NAME":"SES-21","OBJECT_ID":"2022-123B","EPOCH":"2026-03-28T07:19:03.335808","MEAN_MOTION":1.00274783,"ECCENTRICITY":0.00011804,"INCLINATION":0.0266,"RA_OF_ASC_NODE":72.2465,"ARG_OF_PERICENTER":285.389,"MEAN_ANOMALY":166.848,"EPHEMERIS_TYPE":0,"CLASSIFICATION_TYPE":"U","NORAD_CAT_ID":53961,"ELEMENT_SET_NO":999,"REV_AT_EPOCH":640,"BSTAR":0,"MEAN_MOTION_DOT":4.9e-7,"MEAN_MOTION_DDOT":0},{"OBJECT_NAME":"GALAXY 33 (G-33)","OBJECT_ID":"2022-128A","EPOCH":"2026-03-28T15:51:51.599232","MEAN_MOTION":1.00270244,"ECCENTRICITY":0.00018824,"INCLINATION":0.0278,"RA_OF_ASC_NODE":82.8726,"ARG_OF_PERICENTER":272.1624,"MEAN_ANOMALY":295.9805,"EPHEMERIS_TYPE":0,"CLASSIFICATION_TYPE":"U","NORAD_CAT_ID":54026,"ELEMENT_SET_NO":999,"REV_AT_EPOCH":1293,"BSTAR":0,"MEAN_MOTION_DOT":6.0e-7,"MEAN_MOTION_DDOT":0},{"OBJECT_NAME":"GALAXY 34 (G-34)","OBJECT_ID":"2022-128B","EPOCH":"2026-03-28T12:23:38.721696","MEAN_MOTION":1.00268357,"ECCENTRICITY":0.0001484,"INCLINATION":0.0198,"RA_OF_ASC_NODE":170.9941,"ARG_OF_PERICENTER":190.3331,"MEAN_ANOMALY":241.5926,"EPHEMERIS_TYPE":0,"CLASSIFICATION_TYPE":"U","NORAD_CAT_ID":54027,"ELEMENT_SET_NO":999,"REV_AT_EPOCH":1310,"BSTAR":0,"MEAN_MOTION_DOT":0,"MEAN_MOTION_DDOT":0},{"OBJECT_NAME":"ANGOSAT 2","OBJECT_ID":"2022-131A","EPOCH":"2026-03-26T18:24:00.141120","MEAN_MOTION":1.00269817,"ECCENTRICITY":2.66e-5,"INCLINATION":0.018,"RA_OF_ASC_NODE":177.0476,"ARG_OF_PERICENTER":284.3154,"MEAN_ANOMALY":21.8233,"EPHEMERIS_TYPE":0,"CLASSIFICATION_TYPE":"U","NORAD_CAT_ID":54033,"ELEMENT_SET_NO":999,"REV_AT_EPOCH":1265,"BSTAR":0,"MEAN_MOTION_DOT":1.18e-6,"MEAN_MOTION_DDOT":0},{"OBJECT_NAME":"EUTELSAT HOTBIRD 13F","OBJECT_ID":"2022-134A","EPOCH":"2026-03-28T18:16:07.763808","MEAN_MOTION":1.00271701,"ECCENTRICITY":0.00019797,"INCLINATION":0.0557,"RA_OF_ASC_NODE":287.3241,"ARG_OF_PERICENTER":69.5197,"MEAN_ANOMALY":116.3451,"EPHEMERIS_TYPE":0,"CLASSIFICATION_TYPE":"U","NORAD_CAT_ID":54048,"ELEMENT_SET_NO":999,"REV_AT_EPOCH":1257,"BSTAR":0,"MEAN_MOTION_DOT":6.7e-7,"MEAN_MOTION_DDOT":0},{"OBJECT_NAME":"LDPE-2","OBJECT_ID":"2022-144A","EPOCH":"2026-03-28T14:44:51.737280","MEAN_MOTION":1.00544654,"ECCENTRICITY":2.6e-5,"INCLINATION":5.4477,"RA_OF_ASC_NODE":64.1024,"ARG_OF_PERICENTER":260.2894,"MEAN_ANOMALY":210.4352,"EPHEMERIS_TYPE":0,"CLASSIFICATION_TYPE":"U","NORAD_CAT_ID":54219,"ELEMENT_SET_NO":999,"REV_AT_EPOCH":1103,"BSTAR":0,"MEAN_MOTION_DOT":-3.34e-6,"MEAN_MOTION_DDOT":0},{"OBJECT_NAME":"EUTELSAT HOTBIRD 13G","OBJECT_ID":"2022-146A","EPOCH":"2026-03-28T19:55:38.569728","MEAN_MOTION":1.00271623,"ECCENTRICITY":0.00019432,"INCLINATION":0.0445,"RA_OF_ASC_NODE":231.1887,"ARG_OF_PERICENTER":315.3586,"MEAN_ANOMALY":311.584,"EPHEMERIS_TYPE":0,"CLASSIFICATION_TYPE":"U","NORAD_CAT_ID":54225,"ELEMENT_SET_NO":999,"REV_AT_EPOCH":666,"BSTAR":0,"MEAN_MOTION_DOT":6.7e-7,"MEAN_MOTION_DDOT":0},{"OBJECT_NAME":"ZHONGXING-19","OBJECT_ID":"2022-148A","EPOCH":"2026-03-28T20:41:39.099840","MEAN_MOTION":1.00271678,"ECCENTRICITY":0.00024085,"INCLINATION":0.0203,"RA_OF_ASC_NODE":140.9646,"ARG_OF_PERICENTER":220.0812,"MEAN_ANOMALY":298.8066,"EPHEMERIS_TYPE":0,"CLASSIFICATION_TYPE":"U","NORAD_CAT_ID":54230,"ELEMENT_SET_NO":999,"REV_AT_EPOCH":1257,"BSTAR":0,"MEAN_MOTION_DOT":-1.01e-6,"MEAN_MOTION_DDOT":0},{"OBJECT_NAME":"GALAXY 31 (G-31)","OBJECT_ID":"2022-153A","EPOCH":"2026-03-28T15:55:13.776096","MEAN_MOTION":1.00271346,"ECCENTRICITY":0.00014385,"INCLINATION":0.018,"RA_OF_ASC_NODE":134.3613,"ARG_OF_PERICENTER":232.8915,"MEAN_ANOMALY":296.6105,"EPHEMERIS_TYPE":0,"CLASSIFICATION_TYPE":"U","NORAD_CAT_ID":54243,"ELEMENT_SET_NO":999,"REV_AT_EPOCH":632,"BSTAR":0,"MEAN_MOTION_DOT":-6.0e-8,"MEAN_MOTION_DDOT":0},{"OBJECT_NAME":"GALAXY 32 (G-32)","OBJECT_ID":"2022-153B","EPOCH":"2026-03-28T12:38:25.147680","MEAN_MOTION":1.00271225,"ECCENTRICITY":0.000295,"INCLINATION":0.015,"RA_OF_ASC_NODE":118.7764,"ARG_OF_PERICENTER":242.1591,"MEAN_ANOMALY":283.598,"EPHEMERIS_TYPE":0,"CLASSIFICATION_TYPE":"U","NORAD_CAT_ID":54244,"ELEMENT_SET_NO":999,"REV_AT_EPOCH":1233,"BSTAR":0,"MEAN_MOTION_DOT":-1.94e-6,"MEAN_MOTION_DDOT":0},{"OBJECT_NAME":"EUTELSAT 10B","OBJECT_ID":"2022-157A","EPOCH":"2026-03-28T20:21:38.559744","MEAN_MOTION":1.00266916,"ECCENTRICITY":0.00010394,"INCLINATION":0.0608,"RA_OF_ASC_NODE":98.3557,"ARG_OF_PERICENTER":32.6589,"MEAN_ANOMALY":10.6107,"EPHEMERIS_TYPE":0,"CLASSIFICATION_TYPE":"U","NORAD_CAT_ID":54259,"ELEMENT_SET_NO":999,"REV_AT_EPOCH":1222,"BSTAR":0,"MEAN_MOTION_DOT":4.8e-7,"MEAN_MOTION_DDOT":0},{"OBJECT_NAME":"GALAXY 35 (G-35)","OBJECT_ID":"2022-170A","EPOCH":"2026-03-28T21:11:13.763616","MEAN_MOTION":1.00271518,"ECCENTRICITY":0.00020053,"INCLINATION":0.0137,"RA_OF_ASC_NODE":143.3187,"ARG_OF_PERICENTER":220.8196,"MEAN_ANOMALY":46.8423,"EPHEMERIS_TYPE":0,"CLASSIFICATION_TYPE":"U","NORAD_CAT_ID":54741,"ELEMENT_SET_NO":999,"REV_AT_EPOCH":1208,"BSTAR":0,"MEAN_MOTION_DOT":-1.82e-6,"MEAN_MOTION_DDOT":0},{"OBJECT_NAME":"GALAXY 36 (G-36)","OBJECT_ID":"2022-170B","EPOCH":"2026-03-28T21:12:28.643904","MEAN_MOTION":1.0027148,"ECCENTRICITY":0.00022274,"INCLINATION":0.0114,"RA_OF_ASC_NODE":183.6782,"ARG_OF_PERICENTER":223.363,"MEAN_ANOMALY":8.3592,"EPHEMERIS_TYPE":0,"CLASSIFICATION_TYPE":"U","NORAD_CAT_ID":54742,"ELEMENT_SET_NO":999,"REV_AT_EPOCH":1196,"BSTAR":0,"MEAN_MOTION_DOT":-2.05e-6,"MEAN_MOTION_DDOT":0}]
